BLUEWALKER-3            
1 53807U 22111AL  26204.29885613  .00004790  00000+0  13366-3 0  9997
2 53807  53.2275 224.3819 0004806 301.0429  59.0104 15.38673785215768
SPACEMOBILE-003         
1 61045U 24163A   26204.82293406  .00002367  00000+0  12101-3 0  9995
2 61045  52.9689 140.9699 0003476 225.0265 135.0448 15.20677350103349
SPACEMOBILE-005         
1 61046U 24163B   26204.21492985  .00001507  00000+0  82557-4 0  9990
2 61046  52.9740 143.7232 0008301 219.1098 140.9297 15.20624425103243
SPACEMOBILE-001         
1 61047U 24163C   26204.54181854 -.00000036  00000+0  13127-4 0  9991
2 61047  52.9700 141.9250 0006712 219.0311 141.0200 15.20677408103291
SPACEMOBILE-002         
1 61048U 24163D   26204.06618634  .00022234  00000+0  10167-2 0  9992
2 61048  52.9773 144.1623 0004784 212.6215 147.4484 15.20478362103225
SPACEMOBILE-004         
1 61049U 24163E   26204.11393918  .00021285  00000+0  96977-3 0  9993
2 61049  52.9731 143.7101 0005257 250.7696 109.2730 15.20626990103231
SPACEMOBILE-006         
1 67232U 25309A   26204.89778521  .00003101  00000+0  16274-3 0  9997
2 67232  52.9959 163.4648 0009427 245.2954 114.7059 15.18696754 32178
SPACEMOBILE-008         
1 69589U 26139A   26204.74131419  .00000702  00000+0  56499-4 0  9997
2 69589  52.9953  96.6069 0005384  75.8493 284.3096 15.12817576  5510
SPACEMOBILE-009         
1 69590U 26139B   26204.67779602  .00001270  00000+0  88645-4 0  9992
2 69590  52.9945  96.9167 0005611  73.1236 287.0370 15.12717485  5506
SPACEMOBILE-010         
1 69591U 26139C   26204.68182699  .00001349  00000+0  93509-4 0  9990
2 69591  52.9950  96.9447 0005633  65.6333 294.5246 15.12554789  5514
